TIANLIAN 2-02           
1 50005U 21124A   22300.62485799 -.00000004  00000+0  00000+0 0  9990
2 50005   2.2158 281.0164 0001780 269.3864 241.5205  1.00271527  3294
TURKSAT 5B              
1 50212U 21126A   22300.52745512  .00000157  00000+0  00000+0 0  9991
2 50212   0.0749 336.5455 0002828 318.6264 332.6112  1.00271203  2975
INMARSAT 6-F1           
1 50319U 21128A   22300.40535678 -.00000193  00000+0  00000+0 0  9999
2 50319   0.0363 283.1752 0000229  33.0299 197.4853  1.00270008  2938
SHIYAN 12 01 (SY-12 01) 
1 50321U 21129A   22300.52893753  .00000111  00000+0  00000+0 0  9996
2 50321   0.2539 118.8708 0001299 201.8561 314.9837  1.00418303  3175
SHIYAN 12 02 (SY-12 02) 
1 50322U 21129B   22300.62575743 -.00000024  00000+0  00000+0 0  9998
2 50322   0.2532 118.9327 0003078 141.9267 165.9852  1.00388024  3178
TJS-9                   
1 50574U 21135A   22300.57284656 -.00000287  00000+0  00000+0 0  9999
2 50574   0.1028  93.5533 0001790 271.6177  14.2196  1.00272280  3110
USA 324                 
1 51280U 22006A   22298.22697850  .00000146  00000+0  00000+0 0  9997
2 51280   0.0953  92.6085 0000325 210.6131 189.5771  1.00486562  2764
USA 325                 
1 51281U 22006B   22298.81250000  .00000148  00000+0  00000+0 0  9997
2 51281   0.0177 148.3116 0001692 292.5754 262.9661  1.00514488  2768
GOES 18                 
1 51850U 22021A   22300.49161573  .00000108  00000+0  00000+0 0  9996
2 51850   0.0369  75.4256 0002482 149.4875 211.0236  1.00275136  2486
CHINASAT 6D             
1 52255U 22038A   22300.32881253 -.00000341  00000+0  00000+0 0  9990
2 52255   0.0110  62.2433 0001536 140.6699  76.2201  1.00275596  2110
NILESAT 301             
1 52817U 22061A   22300.37415676 -.00000045  00000+0  00000+0 0  9998
2 52817   0.0583  47.2566 0002684 191.0988 285.1016  1.00272420  1425
CMS-02 (GSAT 24)        
1 52903U 22067A   22300.46597881 -.00000246  00000+0  00000+0 0  9992
2 52903   0.0707 271.1906 0004947 205.2988 180.5500  1.00273659  1305
MEASAT 3D               
1 52904U 22067B   22300.53730876 -.00000231  00000+0  00000+0 0  9998
2 52904   0.0343 353.5390 0002570 265.9435  61.3704  1.00271504  1336
SES-22                  
1 52933U 22071A   22300.49213894  .00000100  00000+0  00000+0 0  9990
2 52933   0.0138 268.0102 0002694 318.8997 211.1312  1.00273128  1221
WFOV (USA 332)          
1 52940U 22073A   22300.55138905 -.00000351  00000+0  00000+0 0  9995
2 52940   0.2810  99.3030 0001645 191.9471  62.4835  1.00271458  1046
TIANLIAN 2-03           
1 53100U 22078A   22300.59294264  .00000082  00000+0  00000+0 0  9994
2 53100   2.7636 283.9098 0000338 286.6208  49.4682  1.00273632  1222
SBIRS GEO-6 (USA 336)   
1 53355U 22092A   22300.30417082  .00000119  00000+0  00000+0 0  9997
2 53355   6.4364 312.0965 0002716 310.0383  98.2946  1.00266852   914
CHINASAT 1E (ZX 1E)     
1 53813U 22112A   22300.54702407 -.00000139  00000+0  00000+0 0  9996
2 53813   1.4143 279.9920 0002293 288.0107 106.2234  1.00271250   539
SES-20                  
1 53960U 22123A   22300.49091812  .00000124  00000+0  00000+0 0  9999
2 53960   0.0662 263.1370 0003366  78.9233  89.3091  1.00271222   222
SES-21                  
1 53961U 22123B   22300.29809623  .00000130  00000+0  00000+0 0  9992
2 53961   0.0585 308.7740 0003481 138.7535 272.5545  1.00267221   248
